STARLINK-30372          
1 57789U 23134U   25316.87870750  .00000297  00000+0  20292-4 0  9994
2 57789  43.0050  18.0638 0001409 263.5123  96.5568 15.27611131123005
STARLINK-30367          
1 57791U 23134W   25317.14918446 -.00000951  00000+0 -55366-4 0  9992
2 57791  43.0008 110.4834 0000588  63.3116 296.7787 15.02537299121944
STARLINK-30374          
1 57809U 23138B   25317.23152599  .00000427  00000+0  46655-4 0  9992
2 57809  43.0024 149.2199 0000946 263.5476  96.5259 15.02538302121190
STARLINK-30394          
1 57810U 23138C   25317.22819316  .00010825  00000+0  81492-3 0  9990
2 57810  42.9951 149.1940 0000683 321.1208  38.9585 15.02547377121097
STARLINK-30379          
1 57811U 23138D   25317.22485011  .00002057  00000+0  16723-3 0  9995
2 57811  43.0018 149.1699 0001027 254.1853 105.8876 15.02552472121199
STARLINK-30395          
1 57812U 23138E   25317.22153243  .00000853  00000+0  78244-4 0  9994
2 57812  43.0018 149.1463 0001301 266.3555  93.7138 15.02536223121190
STARLINK-30403          
1 57813U 23138F   25317.21820602 -.00000109  00000+0  69664-5 0  9996
2 57813  43.0025 149.1211 0001167 265.5317  94.5392 15.02536219121092
STARLINK-30413          
1 57814U 23138G   25317.26470801  .00005798  00000+0  44392-3 0  9991
2 57814  42.9971 148.6138 0000501 254.3555 105.7232 15.02536780121208
STARLINK-30398          
1 57815U 23138H   25316.94897568 -.00001023  00000+0 -60692-4 0  9990
2 57815  43.0024 150.5397 0001167 263.2966  96.7744 15.02527122121053
STARLINK-30386          
1 57816U 23138J   25316.94563122  .00001843  00000+0  15140-3 0  9992
2 57816  43.0022 150.5147 0001313 255.3862 104.6835 15.02544547120975
STARLINK-30391          
1 57817U 23138K   25316.94229456  .00000909  00000+0  82339-4 0  9999
2 57817  43.0014 150.4882 0001167 255.0733 104.9980 15.02548261121155
STARLINK-30401          
1 57818U 23138L   25316.93897340 -.00001106  00000+0 -66781-4 0  9997
2 57818  42.9996 150.4588 0001064 257.3092 102.7631 15.02544146121051
STARLINK-30390          
1 57819U 23138M   25316.93563703  .00002099  00000+0  17035-3 0  9998
2 57819  43.0023 150.4407 0001948 288.9394  71.1237 15.02549400121094
STARLINK-30409          
1 57820U 23138N   25317.25472798  .00011601  00000+0  87203-3 0  9992
2 57820  43.0014 148.5150 0001467 261.7187  98.3489 15.02553162121140
STARLINK-30415          
1 57821U 23138P   25317.25913846  .00000128  00000+0  24598-4 0  9998
2 57821  43.0028 148.5675 0002183 260.4277  99.6319 15.02540950121204
STARLINK-30407          
1 57823U 23138R   25317.28255057  .00001499  00000+0  63990-4 0  9997
2 57823  43.0034  66.1890 0001378 276.6424  83.4271 15.27588448122160
