[{"OBJECT_NAME":"STARLINK-30372","OBJECT_ID":"2023-134U","EPOCH":"2025-11-12T21:05:20.328000","MEAN_MOTION":15.27611131,"ECCENTRICITY":0.0001409,"INCLINATION":43.005,"RA_OF_ASC_NODE":18.0638,"ARG_OF_PERICENTER":263.5123,"MEAN_ANOMALY":96.5568,"EPHEMERIS_TYPE":0,"CLASSIFICATION_TYPE":"U","NORAD_CAT_ID":57789,"ELEMENT_SET_NO":999,"REV_AT_EPOCH":12300,"BSTAR":2.0292e-5,"MEAN_MOTION_DOT":2.97e-6,"MEAN_MOTION_DDOT":0},{"OBJECT_NAME":"STARLINK-30367","OBJECT_ID":"2023-134W","EPOCH":"2025-11-13T03:34:49.537344","MEAN_MOTION":15.02537299,"ECCENTRICITY":5.883e-5,"INCLINATION":43.0008,"RA_OF_ASC_NODE":110.4834,"ARG_OF_PERICENTER":63.3116,"MEAN_ANOMALY":296.7787,"EPHEMERIS_TYPE":0,"CLASSIFICATION_TYPE":"U","NORAD_CAT_ID":57791,"ELEMENT_SET_NO":999,"REV_AT_EPOCH":12194,"BSTAR":-5.536627e-5,"MEAN_MOTION_DOT":-9.51e-6,"MEAN_MOTION_DDOT":0},{"OBJECT_NAME":"STARLINK-30374","OBJECT_ID":"2023-138B","EPOCH":"2025-11-13T05:33:23.845536","MEAN_MOTION":15.02538302,"ECCENTRICITY":9.463e-5,"INCLINATION":43.0024,"RA_OF_ASC_NODE":149.2199,"ARG_OF_PERICENTER":263.5476,"MEAN_ANOMALY":96.5259,"EPHEMERIS_TYPE":0,"CLASSIFICATION_TYPE":"U","NORAD_CAT_ID":57809,"ELEMENT_SET_NO":999,"REV_AT_EPOCH":12119,"BSTAR":4.6655053e-5,"MEAN_MOTION_DOT":4.27e-6,"MEAN_MOTION_DDOT":0},{"OBJECT_NAME":"STARLINK-30394","OBJECT_ID":"2023-138C","EPOCH":"2025-11-13T05:28:35.889024","MEAN_MOTION":15.02547377,"ECCENTRICITY":6.836e-5,"INCLINATION":42.9951,"RA_OF_ASC_NODE":149.194,"ARG_OF_PERICENTER":321.1208,"MEAN_ANOMALY":38.9585,"EPHEMERIS_TYPE":0,"CLASSIFICATION_TYPE":"U","NORAD_CAT_ID":57810,"ELEMENT_SET_NO":999,"REV_AT_EPOCH":12109,"BSTAR":0.00081492312,"MEAN_MOTION_DOT":0.00010825,"MEAN_MOTION_DDOT":0},{"OBJECT_NAME":"STARLINK-30379","OBJECT_ID":"2023-138D","EPOCH":"2025-11-13T05:23:47.049504","MEAN_MOTION":15.02552472,"ECCENTRICITY":0.00010278,"INCLINATION":43.0018,"RA_OF_ASC_NODE":149.1699,"ARG_OF_PERICENTER":254.1853,"MEAN_ANOMALY":105.8876,"EPHEMERIS_TYPE":0,"CLASSIFICATION_TYPE":"U","NORAD_CAT_ID":57811,"ELEMENT_SET_NO":999,"REV_AT_EPOCH":12119,"BSTAR":0.00016723242,"MEAN_MOTION_DOT":2.057e-5,"MEAN_MOTION_DDOT":0},{"OBJECT_NAME":"STARLINK-30395","OBJECT_ID":"2023-138E","EPOCH":"2025-11-13T05:19:00.401952","MEAN_MOTION":15.02536223,"ECCENTRICITY":0.00013016,"INCLINATION":43.0018,"RA_OF_ASC_NODE":149.1463,"ARG_OF_PERICENTER":266.3555,"MEAN_ANOMALY":93.7138,"EPHEMERIS_TYPE":0,"CLASSIFICATION_TYPE":"U","NORAD_CAT_ID":57812,"ELEMENT_SET_NO":999,"REV_AT_EPOCH":12119,"BSTAR":7.8243507e-5,"MEAN_MOTION_DOT":8.53e-6,"MEAN_MOTION_DDOT":0},{"OBJECT_NAME":"STARLINK-30403","OBJECT_ID":"2023-138F","EPOCH":"2025-11-13T05:14:13.000128","MEAN_MOTION":15.02536219,"ECCENTRICITY":0.00011678,"INCLINATION":43.0025,"RA_OF_ASC_NODE":149.1211,"ARG_OF_PERICENTER":265.5317,"MEAN_ANOMALY":94.5392,"EPHEMERIS_TYPE":0,"CLASSIFICATION_TYPE":"U","NORAD_CAT_ID":57813,"ELEMENT_SET_NO":999,"REV_AT_EPOCH":12109,"BSTAR":6.966378e-6,"MEAN_MOTION_DOT":-1.09e-6,"MEAN_MOTION_DDOT":0},{"OBJECT_NAME":"STARLINK-30413","OBJECT_ID":"2023-138G","EPOCH":"2025-11-13T06:21:10.772064","MEAN_MOTION":15.0253678,"ECCENTRICITY":5.015e-5,"INCLINATION":42.9971,"RA_OF_ASC_NODE":148.6138,"ARG_OF_PERICENTER":254.3555,"MEAN_ANOMALY":105.7232,"EPHEMERIS_TYPE":0,"CLASSIFICATION_TYPE":"U","NORAD_CAT_ID":57814,"ELEMENT_SET_NO":999,"REV_AT_EPOCH":12120,"BSTAR":0.00044391695,"MEAN_MOTION_DOT":5.798e-5,"MEAN_MOTION_DDOT":0},{"OBJECT_NAME":"STARLINK-30398","OBJECT_ID":"2023-138H","EPOCH":"2025-11-12T22:46:31.498752","MEAN_MOTION":15.02527122,"ECCENTRICITY":0.0001167,"INCLINATION":43.0024,"RA_OF_ASC_NODE":150.5397,"ARG_OF_PERICENTER":263.2966,"MEAN_ANOMALY":96.7744,"EPHEMERIS_TYPE":0,"CLASSIFICATION_TYPE":"U","NORAD_CAT_ID":57815,"ELEMENT_SET_NO":999,"REV_AT_EPOCH":12105,"BSTAR":-6.0692e-5,"MEAN_MOTION_DOT":-1.023e-5,"MEAN_MOTION_DDOT":0},{"OBJECT_NAME":"STARLINK-30386","OBJECT_ID":"2023-138J","EPOCH":"2025-11-12T22:41:42.537408","MEAN_MOTION":15.02544547,"ECCENTRICITY":0.0001313,"INCLINATION":43.0022,"RA_OF_ASC_NODE":150.5147,"ARG_OF_PERICENTER":255.3862,"MEAN_ANOMALY":104.6835,"EPHEMERIS_TYPE":0,"CLASSIFICATION_TYPE":"U","NORAD_CAT_ID":57816,"ELEMENT_SET_NO":999,"REV_AT_EPOCH":12097,"BSTAR":0.0001514,"MEAN_MOTION_DOT":1.843e-5,"MEAN_MOTION_DDOT":0},{"OBJECT_NAME":"STARLINK-30391","OBJECT_ID":"2023-138K","EPOCH":"2025-11-12T22:36:54.249984","MEAN_MOTION":15.02548261,"ECCENTRICITY":0.0001167,"INCLINATION":43.0014,"RA_OF_ASC_NODE":150.4882,"ARG_OF_PERICENTER":255.0733,"MEAN_ANOMALY":104.998,"EPHEMERIS_TYPE":0,"CLASSIFICATION_TYPE":"U","NORAD_CAT_ID":57817,"ELEMENT_SET_NO":999,"REV_AT_EPOCH":12115,"BSTAR":8.2339e-5,"MEAN_MOTION_DOT":9.09e-6,"MEAN_MOTION_DDOT":0},{"OBJECT_NAME":"STARLINK-30401","OBJECT_ID":"2023-138L","EPOCH":"2025-11-12T22:32:07.301760","MEAN_MOTION":15.02544146,"ECCENTRICITY":0.0001064,"INCLINATION":42.9996,"RA_OF_ASC_NODE":150.4588,"ARG_OF_PERICENTER":257.3092,"MEAN_ANOMALY":102.7631,"EPHEMERIS_TYPE":0,"CLASSIFICATION_TYPE":"U","NORAD_CAT_ID":57818,"ELEMENT_SET_NO":999,"REV_AT_EPOCH":12105,"BSTAR":-6.6781e-5,"MEAN_MOTION_DOT":-1.106e-5,"MEAN_MOTION_DDOT":0},{"OBJECT_NAME":"STARLINK-30390","OBJECT_ID":"2023-138M","EPOCH":"2025-11-12T22:27:19.039392","MEAN_MOTION":15.025494,"ECCENTRICITY":0.0001948,"INCLINATION":43.0023,"RA_OF_ASC_NODE":150.4407,"ARG_OF_PERICENTER":288.9394,"MEAN_ANOMALY":71.1237,"EPHEMERIS_TYPE":0,"CLASSIFICATION_TYPE":"U","NORAD_CAT_ID":57819,"ELEMENT_SET_NO":999,"REV_AT_EPOCH":12109,"BSTAR":0.00017035,"MEAN_MOTION_DOT":2.099e-5,"MEAN_MOTION_DDOT":0},{"OBJECT_NAME":"STARLINK-30409","OBJECT_ID":"2023-138N","EPOCH":"2025-11-13T06:06:48.497472","MEAN_MOTION":15.02553162,"ECCENTRICITY":0.00014671,"INCLINATION":43.0014,"RA_OF_ASC_NODE":148.515,"ARG_OF_PERICENTER":261.7187,"MEAN_ANOMALY":98.3489,"EPHEMERIS_TYPE":0,"CLASSIFICATION_TYPE":"U","NORAD_CAT_ID":57820,"ELEMENT_SET_NO":999,"REV_AT_EPOCH":12114,"BSTAR":0.00087203467,"MEAN_MOTION_DOT":0.00011601,"MEAN_MOTION_DDOT":0},{"OBJECT_NAME":"STARLINK-30415","OBJECT_ID":"2023-138P","EPOCH":"2025-11-13T06:13:09.562944","MEAN_MOTION":15.0254095,"ECCENTRICITY":0.00021832,"INCLINATION":43.0028,"RA_OF_ASC_NODE":148.5675,"ARG_OF_PERICENTER":260.4277,"MEAN_ANOMALY":99.6319,"EPHEMERIS_TYPE":0,"CLASSIFICATION_TYPE":"U","NORAD_CAT_ID":57821,"ELEMENT_SET_NO":999,"REV_AT_EPOCH":12120,"BSTAR":2.4597671e-5,"MEAN_MOTION_DOT":1.28e-6,"MEAN_MOTION_DDOT":0},{"OBJECT_NAME":"STARLINK-30407","OBJECT_ID":"2023-138R","EPOCH":"2025-11-13T06:46:52.369248","MEAN_MOTION":15.27588448,"ECCENTRICITY":0.00013782,"INCLINATION":43.0034,"RA_OF_ASC_NODE":66.189,"ARG_OF_PERICENTER":276.6424,"MEAN_ANOMALY":83.4271,"EPHEMERIS_TYPE":0,"CLASSIFICATION_TYPE":"U","NORAD_CAT_ID":57823,"ELEMENT_SET_NO":999,"REV_AT_EPOCH":12216,"BSTAR":6.3989528e-5,"MEAN_MOTION_DOT":1.499e-5,"MEAN_MOTION_DDOT":0}]
